start=new Date('2021-08-26T00:00:00.000Z').valueOf();
sats=[{"SITE":"AFETR","TLE_LINE2":"2 45044  53.0546 144.2200 0001753  71.7940 288.3240 15.06392720 87028","MEAN_ELEMENT_THEORY":"SGP4","TIME_SYSTEM":"UTC","APOAPSIS":"548.450","MEAN_MOTION":"15.06392720","OBJECT_TYPE":"PAYLOAD","GP_ID":"183444936","ELEMENT_SET_NO":"999","INCLINATION":"53.0546","ARG_OF_PERICENTER":"71.7940","RCS_SIZE":"LARGE","MEAN_ANOMALY":"288.3240","LAUNCH_DATE":"2020-01-29","TLE_LINE1":"1 45044U 20006A   21237.90473578  .00002340  00000-0  17595-3 0  9992","EPOCH":"2021-08-25T21:42:49.171392","CLASSIFICATION_TYPE":"U","RA_OF_ASC_NODE":"144.2200","REV_AT_EPOCH":"8702","REF_FRAME":"TEME","OBJECT_ID":"2020-006A","NORAD_CAT_ID":"45044","COUNTRY_CODE":"US","MEAN_MOTION_DOT":"0.00002340","OBJECT_NAME":"STARLINK-1132","CENTER_NAME":"EARTH","PERIOD":"95.593","FILE":"3103208","EPHEMERIS_TYPE":"0","SEMIMAJOR_AXIS":"6925.371","DECAY_DATE":null,"PERIAPSIS":"546.022","BSTAR":"0.00017595000000","MEAN_MOTION_DDOT":"0.0000000000000","ECCENTRICITY":"0.00017530"},{"GP_ID":"183444695","ELEMENT_SET_NO":"999","INCLINATION":"53.0541","ARG_OF_PERICENTER":"58.0442","RCS_SIZE":"LARGE","SITE":"AFETR","TLE_LINE2":"2 45045  53.0541 163.9822 0001780  58.0442 302.0719 15.06405859 86759","MEAN_MOTION":"15.06405859","APOAPSIS":"548.428","OBJECT_TYPE":"PAYLOAD","MEAN_ELEMENT_THEORY":"SGP4","TIME_SYSTEM":"UTC","EPOCH":"2021-08-25T22:59:46.678560","CLASSIFICATION_TYPE":"U","LAUNCH_DATE":"2020-01-29","MEAN_ANOMALY":"302.0719","TLE_LINE1":"1 45045U 20006B   21237.95817915 -.00000488  00000-0 -13878-4 0  9999","NORAD_CAT_ID":"45045","MEAN_MOTION_DOT":"-0.00000488","COUNTRY_CODE":"US","OBJECT_NAME":"STARLINK-1120","CENTER_NAME":"EARTH","PERIOD":"95.592","FILE":"3103208","RA_OF_ASC_NODE":"163.9822","OBJECT_ID":"2020-006B","REV_AT_EPOCH":"8675","REF_FRAME":"TEME","BSTAR":"-0.00001387800000","MEAN_MOTION_DDOT":"0.0000000000000","ECCENTRICITY":"0.00017800","SEMIMAJOR_AXIS":"6925.331","DECAY_DATE":null,"EPHEMERIS_TYPE":"0","PERIAPSIS":"545.963"},{"RA_OF_ASC_NODE":"161.6280","OBJECT_ID":"2020-006C","REV_AT_EPOCH":"8676","REF_FRAME":"TEME","NORAD_CAT_ID":"45046","COUNTRY_CODE":"US","MEAN_MOTION_DOT":"0.00003891","OBJECT_NAME":"STARLINK-1129","CENTER_NAME":"EARTH","FILE":"3103208","PERIOD":"95.517","SEMIMAJOR_AXIS":"6921.702","DECAY_DATE":null,"EPHEMERIS_TYPE":"0","PERIAPSIS":"542.480","BSTAR":"0.00027131000000","MEAN_MOTION_DDOT":"0.0000000000000","ECCENTRICITY":"0.00015700","TLE_LINE2":"2 45046  52.9983 161.6280 0001570  73.4915 286.6246 15.07590652 86764","SITE":"AFETR","APOAPSIS":"544.653","MEAN_MOTION":"15.07590652","OBJECT_TYPE":"PAYLOAD","MEAN_ELEMENT_THEORY":"SGP4","TIME_SYSTEM":"UTC","GP_ID":"183443946","INCLINATION":"52.9983","ELEMENT_SET_NO":"999","RCS_SIZE":"LARGE","ARG_OF_PERICENTER":"73.4915","MEAN_ANOMALY":"286.6246","LAUNCH_DATE":"2020-01-29","TLE_LINE1":"1 45046U 20006C   21237.93153661  .00003891  00000-0  27131-3 0  9994","EPOCH":"2021-08-25T22:21:24.763104","CLASSIFICATION_TYPE":"U"},{"REF_FRAME":"TEME","REV_AT_EPOCH":"8668","OBJECT_ID":"2020-006D","RA_OF_ASC_NODE":"166.0513","OBJECT_NAME":"STARLINK-1131","CENTER_NAME":"EARTH","FILE":"3103042","PERIOD":"95.592","NORAD_CAT_ID":"45047","COUNTRY_CODE":"US","MEAN_MOTION_DOT":"0.00001250","PERIAPSIS":"545.921","EPHEMERIS_TYPE":"0","SEMIMAJOR_AXIS":"6925.334","DECAY_DATE":null,"MEAN_MOTION_DDOT":"0.0000000000000","ECCENTRICITY":"0.00018460","BSTAR":"0.00010277000000","MEAN_ELEMENT_THEORY":"SGP4","TIME_SYSTEM":"UTC","APOAPSIS":"548.478","MEAN_MOTION":"15.06404694","OBJECT_TYPE":"PAYLOAD","TLE_LINE2":"2 45047  53.0562 166.0513 0001846  66.1999 293.9183 15.06404694 86686","SITE":"AFETR","ARG_OF_PERICENTER":"66.1999","RCS_SIZE":"LARGE","GP_ID":"183416733","INCLINATION":"53.0562","ELEMENT_SET_NO":"999","TLE_LINE1":"1 45047U 20006D   21237.49742723  .00001250  00000-0  10277-3 0  9999","LAUNCH_DATE":"2020-01-29","MEAN_ANOMALY":"293.9183","EPOCH":"2021-08-25T11:56:17.712672","CLASSIFICATION_TYPE":"U"},{"RA_OF_ASC_NODE":"166.0128","OBJECT_ID":"2020-006E","REF_FRAME":"TEME","REV_AT_EPOCH":"8668","MEAN_MOTION_DOT":"0.00000232","COUNTRY_CODE":"US","NORAD_CAT_ID":"45048","PERIOD":"95.593","FILE":"3103042","CENTER_NAME":"EARTH","OBJECT_NAME":"STARLINK-1134","DECAY_DATE":null,"SEMIMAJOR_AXIS":"6925.372","EPHEMERIS_TYPE":"0","PERIAPSIS":"546.148","BSTAR":"0.00003446500000","ECCENTRICITY":"0.00015730","MEAN_MOTION_DDOT":"0.0000000000000","SITE":"AFETR","TLE_LINE2":"2 45048  53.0561 166.0128 0001573  64.0191 296.0960 15.06392202 86684","OBJECT_TYPE":"PAYLOAD","MEAN_MOTION":"15.06392202","APOAPSIS":"548.327","TIME_SYSTEM":"UTC","MEAN_ELEMENT_THEORY":"SGP4","INCLINATION":"53.0561","ELEMENT_SET_NO":"999","GP_ID":"183417985","ARG_OF_PERICENTER":"64.0191","RCS_SIZE":"LARGE","MEAN_ANOMALY":"296.0960","LAUNCH_DATE":"2020-01-29","TLE_LINE1":"1 45048U 20006E   21237.50480729  .00000232  00000-0  34465-4 0  9992","CLASSIFICATION_TYPE":"U","EPOCH":"2021-08-25T12:06:55.349856"},{"ECCENTRICITY":"0.00017930","MEAN_MOTION_DDOT":"0.0000000000000","BSTAR":"0.00009492500000","PERIAPSIS":"545.984","DECAY_DATE":null,"SEMIMAJOR_AXIS":"6925.361","EPHEMERIS_TYPE":"0","PERIOD":"95.592","FILE":"3103042","OBJECT_NAME":"STARLINK-1135","CENTER_NAME":"EARTH","COUNTRY_CODE":"US","MEAN_MOTION_DOT":"0.00001132","NORAD_CAT_ID":"45049","OBJECT_ID":"2020-006F","REV_AT_EPOCH":"8668","REF_FRAME":"TEME","RA_OF_ASC_NODE":"166.0022","CLASSIFICATION_TYPE":"U","EPOCH":"2021-08-25T12:12:13.278528","TLE_LINE1":"1 45049U 20006F   21237.50848702  .00001132  00000-0  94925-4 0  9999","LAUNCH_DATE":"2020-01-29","MEAN_ANOMALY":"301.6943","RCS_SIZE":"LARGE","ARG_OF_PERICENTER":"58.4221","ELEMENT_SET_NO":"999","INCLINATION":"53.0545","GP_ID":"183417735","OBJECT_TYPE":"PAYLOAD","APOAPSIS":"548.467","MEAN_MOTION":"15.06396060","TIME_SYSTEM":"UTC","MEAN_ELEMENT_THEORY":"SGP4","TLE_LINE2":"2 45049  53.0545 166.0022 0001793  58.4221 301.6943 15.06396060 86685","SITE":"AFETR"},{"TLE_LINE1":"1 45050U 20006G   21237.78125307  .00001024  00000-0  87653-4 0  9990","MEAN_ANOMALY":"301.6710","LAUNCH_DATE":"2020-01-29","EPOCH":"2021-08-25T18:45:00.265248","CLASSIFICATION_TYPE":"U","TIME_SYSTEM":"UTC","MEAN_ELEMENT_THEORY":"SGP4","OBJECT_TYPE":"PAYLOAD","APOAPSIS":"548.213","MEAN_MOTION":"15.06392796","TLE_LINE2":"2 45050  53.0555 164.7831 0001411  58.4417 301.6710 15.06392796 86724","SITE":"AFETR","RCS_SIZE":"LARGE","ARG_OF_PERICENTER":"58.4417","ELEMENT_SET_NO":"999","INCLINATION":"53.0555","GP_ID":"183443446","PERIAPSIS":"546.258","EPHEMERIS_TYPE":"0","DECAY_DATE":null,"SEMIMAJOR_AXIS":"6925.371","ECCENTRICITY":"0.00014110","MEAN_MOTION_DDOT":"0.0000000000000","BSTAR":"0.00008765300000","REV_AT_EPOCH":"8672","REF_FRAME":"TEME","OBJECT_ID":"2020-006G","RA_OF_ASC_NODE":"164.7831","FILE":"3103208","PERIOD":"95.593","OBJECT_NAME":"STARLINK-1140","CENTER_NAME":"EARTH","COUNTRY_CODE":"US","MEAN_MOTION_DOT":"0.00001024","NORAD_CAT_ID":"45050"},{"CLASSIFICATION_TYPE":"U","EPOCH":"2021-08-25T21:50:45.084192","LAUNCH_DATE":"2020-01-29","MEAN_ANOMALY":"302.8578","TLE_LINE1":"1 45051U 20006H   21237.91024403  .00000828  00000-0  74477-4 0  9992","GP_ID":"183444191","INCLINATION":"53.0534","ELEMENT_SET_NO":"999","RCS_SIZE":"LARGE","ARG_OF_PERICENTER":"57.2591","TLE_LINE2":"2 45051  53.0534 164.1958 0001863  57.2591 302.8578 15.06404134 86744","SITE":"AFETR","MEAN_ELEMENT_THEORY":"SGP4","TIME_SYSTEM":"UTC","APOAPSIS":"548.491","MEAN_MOTION":"15.06404134","OBJECT_TYPE":"PAYLOAD","BSTAR":"0.00007447700000","MEAN_MOTION_DDOT":"0.0000000000000","ECCENTRICITY":"0.00018630","EPHEMERIS_TYPE":"0","SEMIMAJOR_AXIS":"6925.336","DECAY_DATE":null,"PERIAPSIS":"545.911","NORAD_CAT_ID":"45051","COUNTRY_CODE":"US","MEAN_MOTION_DOT":"0.00000828","OBJECT_NAME":"STARLINK-1141","CENTER_NAME":"EARTH","PERIOD":"95.592","FILE":"3103208","RA_OF_ASC_NODE":"164.1958","REV_AT_EPOCH":"8674","REF_FRAME":"TEME","OBJECT_ID":"2020-006H"},{"ECCENTRICITY":"0.00019700","MEAN_MOTION_DDOT":"0.0000000000000","BSTAR":"0.00009241400000","PERIAPSIS":"545.863","DECAY_DATE":null,"SEMIMAJOR_AXIS":"6925.363","EPHEMERIS_TYPE":"0","FILE":"3103042","PERIOD":"95.592","OBJECT_NAME":"STARLINK-1148","CENTER_NAME":"EARTH","COUNTRY_CODE":"US","MEAN_MOTION_DOT":"0.00001095","NORAD_CAT_ID":"45052","OBJECT_ID":"2020-006J","REV_AT_EPOCH":"8668","REF_FRAME":"TEME","RA_OF_ASC_NODE":"165.9404","EPOCH":"2021-08-25T12:33:27.742464","CLASSIFICATION_TYPE":"U","TLE_LINE1":"1 45052U 20006J   21237.52323776  .00001095  00000-0  92414-4 0  9993","LAUNCH_DATE":"2020-01-29","MEAN_ANOMALY":"307.8627","RCS_SIZE":"LARGE","ARG_OF_PERICENTER":"52.2540","ELEMENT_SET_NO":"999","INCLINATION":"53.0555","GP_ID":"183417485","OBJECT_TYPE":"PAYLOAD","MEAN_MOTION":"15.06395387","APOAPSIS":"548.592","TIME_SYSTEM":"UTC","MEAN_ELEMENT_THEORY":"SGP4","TLE_LINE2":"2 45052  53.0555 165.9404 0001970  52.2540 307.8627 15.06395387 86683","SITE":"AFETR"},{"RA_OF_ASC_NODE":"163.2007","OBJECT_ID":"2020-006K","REV_AT_EPOCH":"8674","REF_FRAME":"TEME","MEAN_MOTION_DOT":"0.00003260","COUNTRY_CODE":"US","NORAD_CAT_ID":"45053","PERIOD":"95.568","FILE":"3103208","OBJECT_NAME":"STARLINK-1155","CENTER_NAME":"EARTH","DECAY_DATE":null,"SEMIMAJOR_AXIS":"6924.181","EPHEMERIS_TYPE":"0","PERIAPSIS":"544.628","BSTAR":"0.00023532000000","ECCENTRICITY":"0.00020470","MEAN_MOTION_DDOT":"0.0000000000000","SITE":"AFETR","TLE_LINE2":"2 45053  53.0002 163.2007 0002047  39.4050 320.7087 15.06781125 86740","OBJECT_TYPE":"PAYLOAD","APOAPSIS":"547.463","MEAN_MOTION":"15.06781125","TIME_SYSTEM":"UTC","MEAN_ELEMENT_THEORY":"SGP4","ELEMENT_SET_NO":"999","INCLINATION":"53.0002","GP_ID":"183444696","ARG_OF_PERICENTER":"39.4050","RCS_SIZE":"LARGE","MEAN_ANOMALY":"320.7087","LAUNCH_DATE":"2020-01-29","TLE_LINE1":"1 45053U 20006K   21237.90718853  .00003260  00000-0  23532-3 0  9990","CLASSIFICATION_TYPE":"U","EPOCH":"2021-08-25T21:46:21.088992"}];
